[
    {
        "Altitude(m)": 610405.3274398078,
        "Argument of Periapsis(deg)": 0.0,
        "Eccentricity": 0.0,
        "Inclination(deg)": 60.0,
        "Latitude(deg)": 52.111283736059804,
        "Longitude(deg)": 162.47755018250547,
        "Mean Anomaly(deg)": 114.5455,
        "RAAN(deg)": 130.0,
        "Satellite Name": "Test1 579",
        "Satellite Number": 579,
        "Semi-Major Axis(m)": 6980739.136638005,
        "Time(s)": 0
    },
    {
        "Altitude(m)": 610321.8999271945,
        "Argument of Periapsis(deg)": 0.00010418945913296404,
        "Eccentricity": 0.0,
        "Inclination(deg)": 60.0,
        "Latitude(deg)": 51.74599732454565,
        "Longitude(deg)": 163.24644247806933,
        "Mean Anomaly(deg)": 115.16560614546188,
        "RAAN(deg)": 129.99957995086024,
        "Satellite Name": "Test1 579",
        "Satellite Number": 579,
        "Semi-Major Axis(m)": 6980739.136638005,
        "Time(s)": 10
    }
]